{
  "type": "FeatureCollection",
  "features": [
    {
      "type": "Feature",
      "properties": {
        "lms_application_id": "25076ff37db61500017dc41eeaf11224",
        "name": "WHUT-TV"
      },
      "geometry": {
        "type": "Polygon",
        "coordinates": [
          [
            [
              -77.07944,
              39.66913
            ],
            [
              -76.90314,
              39.64854
            ],
            [
              -76.74673,
              39.61748
            ],
            [
              -76.60118,
              39.56294
            ],
            [
              -76.46707,
              39.49232
            ],
            [
              -76.34146,
              39.40969
            ],
            [
              -76.23037,
              39.31136
            ],
            [
              -76.14374,
              39.19624
            ],
            [
              -76.09059,
              39.06771
            ],
            [
              -76.07676,
              38.93237
            ],
            [
              -76.09753,
              38.79741
            ],
            [
              -76.14192,
              38.66552
            ],
            [
              -76.21931,
              38.54289
            ],
            [
              -76.32186,
              38.43194
            ],
            [
              -76.44846,
              38.33738
            ],
            [
              -76.58454,
              38.24804
            ],
            [
              -76.74446,
              38.18509
            ],
            [
              -76.92215,
              38.16939
            ],
            [
              -77.09628,
              38.19201
            ],
            [
              -77.26154,
              38.21407
            ],
            [
              -77.41577,
              38.26181
            ],
            [
              -77.55352,
              38.33038
            ],
            [
              -77.68297,
              38.40465
            ],
            [
              -77.79196,
              38.49653
            ],
            [
              -77.8852,
              38.59844
            ],
            [
              -77.94926,
              38.71335
            ],
            [
              -77.99702,
              38.83348
            ],
            [
              -78.01956,
              38.95927
            ],
            [
              -78.04612,
              39.09213
            ],
            [
              -77.96643,
              39.21074
            ],
            [
              -77.88395,
              39.32148
            ],
            [
              -77.78245,
              39.42026
            ],
            [
              -77.66193,
              39.50384
            ],
            [
              -77.52527,
              39.56944
            ],
            [
              -77.37819,
              39.61826
            ],
            [
              -77.22603,
              39.6627
            ],
            [
              -77.07944,
              39.66913
            ]
          ]
        ]
      }
    },
    {
      "type": "Feature",
      "properties": {
        "lms_application_id": "25076ff38d85e638018dc238f319328d",
        "name": "KWGN-TV"
      },
      "geometry": {
        "type": "Polygon",
        "coordinates": [
          [
            [
              -105.23611,
              40.73122
            ],
            [
              -104.97487,
              40.75067
            ],
            [
              -104.74094,
              40.7096
            ],
            [
              -104.51597,
              40.64005
            ],
            [
              -104.29154,
              40.55458
            ],
            [
              -104.11674,
              40.41755
            ],
            [
              -103.97182,
              40.26073
            ],
            [
              -103.87895,
              40.08243
            ],
            [
              -103.834,
              39.89473
            ],
            [
              -103.81585,
              39.70505
            ],
            [
              -103.85888,
              39.51812
            ],
            [
              -103.95172,
              39.34441
            ],
            [
              -104.08584,
              39.19141
            ],
            [
              -104.22605,
              39.04647
            ],
            [
              -104.39179,
              38.91846
            ],
            [
              -104.60584,
              38.84546
            ],
            [
              -104.84721,
              38.85251
            ],
            [
              -105.08653,
              38.99868
            ],
            [
              -105.25205,
              39.02335
            ],
            [
              -105.39371,
              39.10349
            ],
            [
              -105.51674,
              39.16563
            ],
            [
              -105.69662,
              39.1374
            ],
            [
              -105.75483,
              39.26966
            ],
            [
              -105.7531,
              39.40816
            ],
            [
              -105.81857,
              39.48213
            ],
            [
              -105.86652,
              39.56373
            ],
            [
              -105.9668,
              39.64137
            ],
            [
              -106.15293,
              39.74148
            ],
            [
              -106.08336,
              39.85612
            ],
            [
              -105.86175,
              39.9153
            ],
            [
              -105.81122,
              39.99609
            ],
            [
              -105.74301,
              40.06889
            ],
            [
              -105.65918,
              40.13146
            ],
            [
              -105.61335,
              40.25158
            ],
            [
              -105.54495,
              40.41529
            ],
            [
              -105.42254,
              40.62602
            ],
            [
              -105.23611,
              40.73122
            ]
          ]
        ]
      }
    },
    {
      "type": "Feature",
      "properties": {
        "lms_application_id": "25076ff37819466e017821ab088411b7",
        "name": "WIAV-CD"
      },
      "geometry": {
        "type": "Polygon",
        "coordinates": [
          [
            [
              -77.08125,
              39.39397
            ],
            [
              -76.97114,
              39.37789
            ],
            [
              -76.87328,
              39.35878
            ],
            [
              -76.77984,
              39.32771
            ],
            [
              -76.69461,
              39.28369
            ],
            [
              -76.61479,
              39.23172
            ],
            [
              -76.54348,
              39.16993
            ],
            [
              -76.49098,
              39.09631
            ],
            [
              -76.459,
              39.01498
            ],
            [
              -76.45283,
              38.92984
            ],
            [
              -76.46324,
              38.84486
            ],
            [
              -76.49019,
              38.76165
            ],
            [
              -76.54105,
              38.68544
            ],
            [
              -76.60735,
              38.61722
            ],
            [
              -76.68305,
              38.55483
            ],
            [
              -76.77012,
              38.50037
            ],
            [
              -76.87149,
              38.46286
            ],
            [
              -76.98267,
              38.45258
            ],
            [
              -77.09195,
              38.46017
            ],
            [
              -77.19749,
              38.47181
            ],
            [
              -77.29531,
              38.50346
            ],
            [
              -77.38034,
              38.55039
            ],
            [
              -77.46233,
              38.59682
            ],
            [
              -77.5284,
              38.65644
            ],
            [
              -77.58375,
              38.72166
            ],
            [
              -77.62503,
              38.79286
            ],
            [
              -77.65647,
              38.86771
            ],
            [
              -77.66991,
              38.94657
            ],
            [
              -77.66964,
              39.02743
            ],
            [
              -77.65742,
              39.11025
            ],
            [
              -77.59408,
              39.1778
            ],
            [
              -77.52535,
              39.23822
            ],
            [
              -77.44899,
              39.29094
            ],
            [
              -77.36099,
              39.33009
            ],
            [
              -77.26706,
              39.35716
            ],
            [
              -77.17274,
              39.38644
            ],
            [
              -77.08125,
              39.39397
            ]
          ]
        ]
      }
    },
    {
      "type": "Feature",
      "properties": {
        "lms_application_id": "25076f918c46c9b3018c83fd1bd74e8e",
        "name": "KVCW-CD"
      },
      "geometry": {
        "type": "Polygon",
        "coordinates": [
          [
            [
              -115.00748,
              37.06508
            ],
            [
              -114.7645,
              37.00563
            ],
            [
              -114.55553,
              36.9477
            ],
            [
              -114.32932,
              36.90817
            ],
            [
              -114.16041,
              36.78505
            ],
            [
              -114.07714,
              36.60876
            ],
            [
              -114.01187,
              36.4474
            ],
            [
              -113.94947,
              36.29655
            ],
            [
              -113.94327,
              36.13901
            ],
            [
              -113.95622,
              35.98815
            ],
            [
              -114.02415,
              35.84864
            ],
            [
              -114.02191,
              35.69631
            ],
            [
              -114.07942,
              35.55031
            ],
            [
              -114.21685,
              35.44507
            ],
            [
              -114.39863,
              35.39312
            ],
            [
              -114.54143,
              35.32066
            ],
            [
              -114.69418,
              35.26424
            ],
            [
              -114.85737,
              35.23333
            ],
            [
              -115.02211,
              35.32377
            ],
            [
              -115.10871,
              35.58398
            ],
            [
              -115.20606,
              35.5867
            ],
            [
              -115.38836,
              35.49086
            ],
            [
              -115.55455,
              35.49394
            ],
            [
              -115.70052,
              35.54897
            ],
            [
              -115.86493,
              35.61815
            ],
            [
              -116.01968,
              35.72037
            ],
            [
              -116.11383,
              35.86049
            ],
            [
              -116.14557,
              36.01827
            ],
            [
              -116.11278,
              36.17594
            ],
            [
              -116.08865,
              36.33705
            ],
            [
              -116.05437,
              36.50864
            ],
            [
              -115.9388,
              36.6535
            ],
            [
              -115.77716,
              36.76655
            ],
            [
              -115.62329,
              36.89452
            ],
            [
              -115.43949,
              37.00877
            ],
            [
              -115.21767,
              37.0664
            ],
            [
              -115.00748,
              37.06508
            ]
          ]
        ]
      }
    },
    {
      "type": "Feature",
      "properties": {
        "lms_application_id": "25076ff38cb22ead018cb256c7990044",
        "name": "WNUV"
      },
      "geometry": {
        "type": "Polygon",
        "coordinates": [
          [
            [
              -76.60303,
              39.8034
            ],
            [
              -76.5093,
              39.77348
            ],
            [
              -76.43494,
              39.73949
            ],
            [
              -76.35459,
              39.72066
            ],
            [
              -76.2628,
              39.70352
            ],
            [
              -76.1852,
              39.66261
            ],
            [
              -76.12113,
              39.60769
            ],
            [
              -76.07994,
              39.54062
            ],
            [
              -76.06968,
              39.46689
            ],
            [
              -76.09023,
              39.39485
            ],
            [
              -76.08772,
              39.32427
            ],
            [
              -76.08227,
              39.24692
            ],
            [
              -76.09979,
              39.16737
            ],
            [
              -76.14544,
              39.09327
            ],
            [
              -76.21381,
              39.02885
            ],
            [
              -76.30027,
              38.97789
            ],
            [
              -76.39811,
              38.9398
            ],
            [
              -76.50417,
              38.91721
            ],
            [
              -76.61406,
              38.91134
            ],
            [
              -76.72274,
              38.92368
            ],
            [
              -76.82159,
              38.95994
            ],
            [
              -76.90533,
              39.01156
            ],
            [
              -76.97481,
              39.07025
            ],
            [
              -77.03745,
              39.12919
            ],
            [
              -77.07764,
              39.19804
            ],
            [
              -77.11464,
              39.26538
            ],
            [
              -77.12894,
              39.33728
            ],
            [
              -77.1585,
              39.40906
            ],
            [
              -77.14581,
              39.48306
            ],
            [
              -77.08985,
              39.54598
            ],
            [
              -77.0333,
              39.6013
            ],
            [
              -76.98626,
              39.65873
            ],
            [
              -76.93161,
              39.71456
            ],
            [
              -76.88654,
              39.79553
            ],
            [
              -76.78876,
              39.81706
            ],
            [
              -76.68841,
              39.8169
            ],
            [
              -76.60303,
              39.8034
            ]
          ]
        ]
      }
    }
  ]
}